{"type": "FeatureCollection", "features": [ {"type": "Feature", "properties": {"norad_id": 32289, "name": "YAOGAN-3", "group": "resource", "lat": 30.935698926024223, "lon": -171.1802027675225, "alt_km": 596.6500412998648, "timestamp": "2025-12-03T08:58:45.655604+00:00", "meta": {"OBJECT_NAME": "YAOGAN-3", "OBJECT_ID": "2007-055A", "EPOCH": "2025-12-03T05:05:25.949760", "MEAN_MOTION": 14.89781073, "ECCENTRICITY": 0.00015, "INCLINATION": 97.8377, "RA_OF_ASC_NODE": 3.9237, "ARG_OF_PERICENTER": 77.1928, "MEAN_ANOMALY": 282.9457, "EPHEMERIS_TYPE": 0, "CLASSIFICATION_TYPE": "U", "NORAD_CAT_ID": 32289, "ELEMENT_SET_NO": 999, "REV_AT_EPOCH": 97667, "BSTAR": 0.00034548, "MEAN_MOTION_DOT": 3.258e-05, "MEAN_MOTION_DDOT": 0}, "tle": {"line1": "1 32289U 07055A   25337.21210590  .00003258  00000+0  34548-3 0  9995", "line2": "2 32289  97.8377   3.9237 0001500  77.1928 282.9457 14.89781073976671"}}, "geometry": {"type": "Point", "coordinates": [-171.1802027675225, 30.935698926024223]}}, {"type": "Feature", "properties": {"norad_id": 32376, "name": "COSMO-SKYMED 2", "group": "resource", "lat": -33.984384753358924, "lon": 164.1962251326961, "alt_km": 629.3516286303684, "timestamp": "2025-12-03T08:58:45.655615+00:00", "meta": {"OBJECT_NAME": "COSMO-SKYMED 2", "OBJECT_ID": "2007-059A", "EPOCH": "2025-12-03T04:16:23.734272", "MEAN_MOTION": 14.82145991, "ECCENTRICITY": 0.000153, "INCLINATION": 97.8806, "RA_OF_ASC_NODE": 158.6456, "ARG_OF_PERICENTER": 88.3775, "MEAN_ANOMALY": 271.7614, "EPHEMERIS_TYPE": 0, "CLASSIFICATION_TYPE": "U", "NORAD_CAT_ID": 32376, "ELEMENT_SET_NO": 999, "REV_AT_EPOCH": 97296, "BSTAR": 0.00011406, "MEAN_MOTION_DOT": 8.56e-06, "MEAN_MOTION_DDOT": 0}, "tle": {"line1": "1 32376U 07059A   25337.17805248  .00000856  00000+0  11406-3 0  9990", "line2": "2 32376  97.8806 158.6456 0001530  88.3775 271.7614 14.82145991972968"}}, "geometry": {"type": "Point", "coordinates": [164.1962251326961, -33.984384753358924]}}, {"type": "Feature", "properties": {"norad_id": 32382, "name": "RADARSAT-2", "group": "resource", "lat": -50.07986675149848, "lon": 151.70521976429345, "alt_km": 799.2504859781347, "timestamp": "2025-12-03T08:58:45.655626+00:00", "meta": {"OBJECT_NAME": "RADARSAT-2", "OBJECT_ID": "2007-061A", "EPOCH": "2025-12-03T04:32:41.505792", "MEAN_MOTION": 14.29983473, "ECCENTRICITY": 0.0001079, "INCLINATION": 98.58, "RA_OF_ASC_NODE": 341.9183, "ARG_OF_PERICENTER": 90.9324, "MEAN_ANOMALY": 269.1982, "EPHEMERIS_TYPE": 0, "CLASSIFICATION_TYPE": "U", "NORAD_CAT_ID": 32382, "ELEMENT_SET_NO": 999, "REV_AT_EPOCH": 93794, "BSTAR": 6.6849e-05, "MEAN_MOTION_DOT": 1.29e-06, "MEAN_MOTION_DDOT": 0}, "tle": {"line1": "1 32382U 07061A   25337.18936928  .00000129  00000+0  66849-4 0  9996", "line2": "2 32382  98.5800 341.9183 0001079  90.9324 269.1982 14.29983473937942"}}, "geometry": {"type": "Point", "coordinates": [151.70521976429345, -50.07986675149848]}}, {"type": "Feature", "properties": {"norad_id": 32783, "name": "CARTOSAT-2A", "group": "resource", "lat": -34.12433218269553, "lon": -157.83629618493367, "alt_km": 647.7765818788848, "timestamp": "2025-12-03T08:58:45.655638+00:00", "meta": {"OBJECT_NAME": "CARTOSAT-2A", "OBJECT_ID": "2008-021A", "EPOCH": "2025-12-03T04:45:56.320992", "MEAN_MOTION": 14.78907008, "ECCENTRICITY": 0.0012503, "INCLINATION": 97.7944, "RA_OF_ASC_NODE": 27.3197, "ARG_OF_PERICENTER": 34.4177, "MEAN_ANOMALY": 325.7842, "EPHEMERIS_TYPE": 0, "CLASSIFICATION_TYPE": "U", "NORAD_CAT_ID": 32783, "ELEMENT_SET_NO": 999, "REV_AT_EPOCH": 94983, "BSTAR": 0.00017595, "MEAN_MOTION_DOT": 1.248e-05, "MEAN_MOTION_DDOT": 0}, "tle": {"line1": "1 32783U 08021A   25337.19856853  .00001248  00000+0  17595-3 0  9993", "line2": "2 32783  97.7944  27.3197 0012503  34.4177 325.7842 14.78907008949839"}}, "geometry": {"type": "Point", "coordinates": [-157.83629618493367, -34.12433218269553]}}, {"type": "Feature", "properties": {"norad_id": 33320, "name": "HUANJING 1A (HJ-1A)", "group": "resource", "lat": -68.71595037082461, "lon": -13.742766293352288, "alt_km": 635.9797591145589, "timestamp": "2025-12-03T08:58:45.655649+00:00", "meta": {"OBJECT_NAME": "HUANJING 1A (HJ-1A)", "OBJECT_ID": "2008-041A", "EPOCH": "2025-12-03T04:26:17.359296", "MEAN_MOTION": 14.83344196, "ECCENTRICITY": 0.0020656, "INCLINATION": 97.6535, "RA_OF_ASC_NODE": 325.8831, "ARG_OF_PERICENTER": 63.9745, "MEAN_ANOMALY": 296.3594, "EPHEMERIS_TYPE": 0, "CLASSIFICATION_TYPE": "U", "NORAD_CAT_ID": 33320, "ELEMENT_SET_NO": 999, "REV_AT_EPOCH": 92934, "BSTAR": 0.00024935, "MEAN_MOTION_DOT": 2e-05, "MEAN_MOTION_DDOT": 0}, "tle": {"line1": "1 33320U 08041A   25337.18492314  .00002000  00000+0  24935-3 0  9993", "line2": "2 33320  97.6535 325.8831 0020656  63.9745 296.3594 14.83344196929349"}}, "geometry": {"type": "Point", "coordinates": [-13.742766293352288, -68.71595037082461]}}, {"type": "Feature", "properties": {"norad_id": 33321, "name": "HUANJING 1B (HJ-1B)", "group": "resource", "lat": 8.996444126124551, "lon": 151.00343509895194, "alt_km": 611.1684658993909, "timestamp": "2025-12-03T08:58:45.655705+00:00", "meta": {"OBJECT_NAME": "HUANJING 1B (HJ-1B)", "OBJECT_ID": "2008-041B", "EPOCH": "2025-12-03T04:58:33.624768", "MEAN_MOTION": 14.82780387, "ECCENTRICITY": 0.0038154, "INCLINATION": 97.6396, "RA_OF_ASC_NODE": 329.6264, "ARG_OF_PERICENTER": 105.8928, "MEAN_ANOMALY": 254.6497, "EPHEMERIS_TYPE": 0, "CLASSIFICATION_TYPE": "U", "NORAD_CAT_ID": 33321, "ELEMENT_SET_NO": 999, "REV_AT_EPOCH": 92936, "BSTAR": 0.0001995, "MEAN_MOTION_DOT": 1.582e-05, "MEAN_MOTION_DDOT": 0}, "tle": {"line1": "1 33321U 08041B   25337.20733362  .00001582  00000+0  19950-3 0  9993", "line2": "2 33321  97.6396 329.6264 0038154 105.8928 254.6497 14.82780387929364"}}, "geometry": {"type": "Point", "coordinates": [151.00343509895194, 8.996444126124551]}}, {"type": "Feature", "properties": {"norad_id": 33331, "name": "GEOEYE 1", "group": "resource", "lat": 41.67061522878204, "lon": 41.4649751475852, "alt_km": 674.1933527800356, "timestamp": "2025-12-03T08:58:45.655722+00:00", "meta": {"OBJECT_NAME": "GEOEYE 1", "OBJECT_ID": "2008-042A", "EPOCH": "2025-12-03T03:52:08.832576", "MEAN_MOTION": 14.64790549, "ECCENTRICITY": 0.0002996, "INCLINATION": 98.1264, "RA_OF_ASC_NODE": 48.5611, "ARG_OF_PERICENTER": 318.2534, "MEAN_ANOMALY": 41.844, "EPHEMERIS_TYPE": 0, "CLASSIFICATION_TYPE": "U", "NORAD_CAT_ID": 33331, "ELEMENT_SET_NO": 999, "REV_AT_EPOCH": 92145, "BSTAR": 0.00017141, "MEAN_MOTION_DOT": 8.67e-06, "MEAN_MOTION_DDOT": 0}, "tle": {"line1": "1 33331U 08042A   25337.16121334  .00000867  00000+0  17141-3 0  9995", "line2": "2 33331  98.1264  48.5611 0002996 318.2534  41.8440 14.64790549921453"}}, "geometry": {"type": "Point", "coordinates": [41.4649751475852, 41.67061522878204]}}, {"type": "Feature", "properties": {"norad_id": 33396, "name": "THEOS", "group": "resource", "lat": -35.65039362997584, "lon": 41.96211963055674, "alt_km": 831.8440502155418, "timestamp": "2025-12-03T08:58:45.655740+00:00", "meta": {"OBJECT_NAME": "THEOS", "OBJECT_ID": "2008-049A", "EPOCH": "2025-12-03T04:04:34.107744", "MEAN_MOTION": 14.20093032, "ECCENTRICITY": 0.0001086, "INCLINATION": 98.5881, "RA_OF_ASC_NODE": 35.5412, "ARG_OF_PERICENTER": 100.5718, "MEAN_ANOMALY": 259.5582, "EPHEMERIS_TYPE": 0, "CLASSIFICATION_TYPE": "U", "NORAD_CAT_ID": 33396, "ELEMENT_SET_NO": 999, "REV_AT_EPOCH": 89014, "BSTAR": 6.7976e-05, "MEAN_MOTION_DOT": 1.02e-06, "MEAN_MOTION_DDOT": 0}, "tle": {"line1": "1 33396U 08049A   25337.16983921  .00000102  00000+0  67976-4 0  9995", "line2": "2 33396  98.5881  35.5412 0001086 100.5718 259.5582 14.20093032890144"}}, "geometry": {"type": "Point", "coordinates": [41.96211963055674, -35.65039362997584]}}, {"type": "Feature", "properties": {"norad_id": 33412, "name": "COSMO-SKYMED 3", "group": "resource", "lat": 62.428815423447595, "lon": 172.29357608425994, "alt_km": 553.1454071164253, "timestamp": "2025-12-03T08:58:45.655754+00:00", "meta": {"OBJECT_NAME": "COSMO-SKYMED 3", "OBJECT_ID": "2008-054A", "EPOCH": "2025-12-03T03:54:40.000608", "MEAN_MOTION": 15.05207345, "ECCENTRICITY": 0.0015392, "INCLINATION": 97.847, "RA_OF_ASC_NODE": 187.3941, "ARG_OF_PERICENTER": 205.8271, "MEAN_ANOMALY": 154.2188, "EPHEMERIS_TYPE": 0, "CLASSIFICATION_TYPE": "U", "NORAD_CAT_ID": 33412, "ELEMENT_SET_NO": 999, "REV_AT_EPOCH": 92743, "BSTAR": 0.00040937, "MEAN_MOTION_DOT": 5.792e-05, "MEAN_MOTION_DDOT": 0}, "tle": {"line1": "1 33412U 08054A   25337.16296297  .00005792  00000+0  40937-3 0  9990", "line2": "2 33412  97.8470 187.3941 0015392 205.8271 154.2188 15.05207345927434"}}, "geometry": {"type": "Point", "coordinates": [172.29357608425994, 62.428815423447595]}}, {"type": "Feature", "properties": {"norad_id": 33446, "name": "YAOGAN-4", "group": "resource", "lat": 81.45482178546762, "lon": -160.26985410284166, "alt_km": 613.9465266455545, "timestamp": "2025-12-03T08:58:45.655765+00:00", "meta": {"OBJECT_NAME": "YAOGAN-4", "OBJECT_ID": "2008-061A", "EPOCH": "2025-12-02T19:37:56.076096", "MEAN_MOTION": 14.82631045, "ECCENTRICITY": 0.0014458, "INCLINATION": 97.9168, "RA_OF_ASC_NODE": 267.0155, "ARG_OF_PERICENTER": 356.4345, "MEAN_ANOMALY": 3.6763, "EPHEMERIS_TYPE": 0, "CLASSIFICATION_TYPE": "U", "NORAD_CAT_ID": 33446, "ELEMENT_SET_NO": 999, "REV_AT_EPOCH": 91656, "BSTAR": 0.00026598, "MEAN_MOTION_DOT": 2.092e-05, "MEAN_MOTION_DDOT": 0}, "tle": {"line1": "1 33446U 08061A   25336.81801014  .00002092  00000+0  26598-3 0  9992", "line2": "2 33446  97.9168 267.0155 0014458 356.4345   3.6763 14.82631045916566"}}, "geometry": {"type": "Point", "coordinates": [-160.26985410284166, 81.45482178546762]}}]}